start=new Date('2022-12-26T00:00:00.000Z').valueOf();
sats=[{"MEAN_ELEMENT_THEORY":"SGP4","MEAN_MOTION_DDOT":"0.0000000000000","ECCENTRICITY":"0.00021650","REF_FRAME":"TEME","COUNTRY_CODE":"US","RA_OF_ASC_NODE":"45.6565","GP_ID":"221455305","MEAN_MOTION":"15.08844514","MEAN_MOTION_DOT":"0.00001867","RCS_SIZE":"LARGE","INCLINATION":"53.2196","PERIAPSIS":"538.234","CLASSIFICATION_TYPE":"U","MEAN_ANOMALY":"330.6871","EPHEMERIS_TYPE":"0","ARG_OF_PERICENTER":"29.4243","OBJECT_NAME":"STARLINK-4130","TLE_LINE1":"1 53263U 22086X   22359.86579492  .00001867  00000-0  13535-3 0  9990","APOAPSIS":"541.229","BSTAR":"0.00013535000000","TIME_SYSTEM":"UTC","CENTER_NAME":"EARTH","OBJECT_TYPE":"PAYLOAD","FILE":"3722315","SEMIMAJOR_AXIS":"6917.867","LAUNCH_DATE":"2022-07-24","SITE":"AFETR","DECAY_DATE":null,"PERIOD":"95.437","OBJECT_ID":"2022-086X","ELEMENT_SET_NO":"999","EPOCH":"2022-12-25T20:46:44.681088","TLE_LINE2":"2 53263  53.2196  45.6565 0002165  29.4243 330.6871 15.08844514 24460","NORAD_CAT_ID":"53263","REV_AT_EPOCH":"2446"},{"REF_FRAME":"TEME","MEAN_ELEMENT_THEORY":"SGP4","ECCENTRICITY":"0.00019900","MEAN_MOTION_DDOT":"0.0000000000000","GP_ID":"221453859","COUNTRY_CODE":"US","RA_OF_ASC_NODE":"45.6241","MEAN_MOTION":"15.08839142","CLASSIFICATION_TYPE":"U","MEAN_MOTION_DOT":"-0.00000906","PERIAPSIS":"538.371","RCS_SIZE":"LARGE","INCLINATION":"53.2210","MEAN_ANOMALY":"321.7453","EPHEMERIS_TYPE":"0","OBJECT_NAME":"STARLINK-3950","TIME_SYSTEM":"UTC","APOAPSIS":"541.125","BSTAR":"-0.00003884200000","TLE_LINE1":"1 53264U 22086Y   22359.87315070 -.00000906  00000-0 -38842-4 0  9996","ARG_OF_PERICENTER":"38.3680","FILE":"3722315","SEMIMAJOR_AXIS":"6917.883","LAUNCH_DATE":"2022-07-24","CENTER_NAME":"EARTH","OBJECT_TYPE":"PAYLOAD","NORAD_CAT_ID":"53264","TLE_LINE2":"2 53264  53.2210  45.6241 0001990  38.3680 321.7453 15.08839142 24466","REV_AT_EPOCH":"2446","ELEMENT_SET_NO":"999","DECAY_DATE":null,"SITE":"AFETR","PERIOD":"95.438","OBJECT_ID":"2022-086Y","EPOCH":"2022-12-25T20:57:20.220480"},{"GP_ID":"221454066","RA_OF_ASC_NODE":"45.6862","COUNTRY_CODE":"US","REF_FRAME":"TEME","ECCENTRICITY":"0.00019970","MEAN_MOTION_DDOT":"0.0000000000000","MEAN_ELEMENT_THEORY":"SGP4","CLASSIFICATION_TYPE":"U","PERIAPSIS":"538.365","INCLINATION":"53.2188","RCS_SIZE":"LARGE","MEAN_MOTION_DOT":"-0.00000157","MEAN_MOTION":"15.08839535","BSTAR":"0.00000823860000","APOAPSIS":"541.128","TIME_SYSTEM":"UTC","TLE_LINE1":"1 53265U 22086Z   22359.85842961 -.00000157  00000-0  82386-5 0  9999","OBJECT_NAME":"STARLINK-4097","ARG_OF_PERICENTER":"39.6645","EPHEMERIS_TYPE":"0","MEAN_ANOMALY":"320.4493","REV_AT_EPOCH":"2446","NORAD_CAT_ID":"53265","TLE_LINE2":"2 53265  53.2188  45.6862 0001997  39.6645 320.4493 15.08839535 24468","EPOCH":"2022-12-25T20:36:08.318304","ELEMENT_SET_NO":"999","DECAY_DATE":null,"SITE":"AFETR","OBJECT_ID":"2022-086Z","PERIOD":"95.438","LAUNCH_DATE":"2022-07-24","SEMIMAJOR_AXIS":"6917.882","FILE":"3722315","OBJECT_TYPE":"PAYLOAD","CENTER_NAME":"EARTH"},{"MEAN_ANOMALY":"321.2190","EPHEMERIS_TYPE":"0","ARG_OF_PERICENTER":"38.8957","OBJECT_NAME":"STARLINK-4058","BSTAR":"0.00014855000000","APOAPSIS":"541.232","TIME_SYSTEM":"UTC","TLE_LINE1":"1 53266U 22086AA  22359.86212128  .00002077  00000-0  14855-3 0  9993","CENTER_NAME":"EARTH","OBJECT_TYPE":"PAYLOAD","FILE":"3722315","LAUNCH_DATE":"2022-07-24","SEMIMAJOR_AXIS":"6917.878","ELEMENT_SET_NO":"999","SITE":"AFETR","DECAY_DATE":null,"PERIOD":"95.438","OBJECT_ID":"2022-086AA","EPOCH":"2022-12-25T20:41:27.278592","NORAD_CAT_ID":"53266","TLE_LINE2":"2 53266  53.2199  45.6737 0002152  38.8957 321.2190 15.08840663 24460","REV_AT_EPOCH":"2446","MEAN_ELEMENT_THEORY":"SGP4","MEAN_MOTION_DDOT":"0.0000000000000","ECCENTRICITY":"0.00021520","REF_FRAME":"TEME","COUNTRY_CODE":"US","RA_OF_ASC_NODE":"45.6737","GP_ID":"221455099","MEAN_MOTION":"15.08840663","MEAN_MOTION_DOT":"0.00002077","PERIAPSIS":"538.255","RCS_SIZE":"LARGE","INCLINATION":"53.2199","CLASSIFICATION_TYPE":"U"},{"RA_OF_ASC_NODE":"45.7300","COUNTRY_CODE":"US","GP_ID":"221454893","ECCENTRICITY":"0.00023370","MEAN_MOTION_DDOT":"0.0000000000000","MEAN_ELEMENT_THEORY":"SGP4","REF_FRAME":"TEME","INCLINATION":"53.2199","RCS_SIZE":"LARGE","PERIAPSIS":"538.136","MEAN_MOTION_DOT":"0.00000526","CLASSIFICATION_TYPE":"U","MEAN_MOTION":"15.08837547","ARG_OF_PERICENTER":"26.5285","TLE_LINE1":"1 53267U 22086AB  22359.85107677  .00000526  00000-0  51142-4 0  9993","APOAPSIS":"541.370","BSTAR":"0.00005114200000","TIME_SYSTEM":"UTC","OBJECT_NAME":"STARLINK-4060","EPHEMERIS_TYPE":"0","MEAN_ANOMALY":"333.5827","EPOCH":"2022-12-25T20:25:33.032928","OBJECT_ID":"2022-086AB","DECAY_DATE":null,"SITE":"AFETR","PERIOD":"95.438","ELEMENT_SET_NO":"999","REV_AT_EPOCH":"2446","TLE_LINE2":"2 53267  53.2199  45.7300 0002337  26.5285 333.5827 15.08837547 24461","NORAD_CAT_ID":"53267","OBJECT_TYPE":"PAYLOAD","CENTER_NAME":"EARTH","LAUNCH_DATE":"2022-07-24","SEMIMAJOR_AXIS":"6917.888","FILE":"3722315"},{"MEAN_ELEMENT_THEORY":"SGP4","ECCENTRICITY":"0.00015150","MEAN_MOTION_DDOT":"0.0000000000000","REF_FRAME":"TEME","COUNTRY_CODE":"US","RA_OF_ASC_NODE":"45.7071","GP_ID":"221454273","MEAN_MOTION":"15.08836786","MEAN_MOTION_DOT":"0.00000011","INCLINATION":"53.2182","RCS_SIZE":"LARGE","PERIAPSIS":"538.707","CLASSIFICATION_TYPE":"U","MEAN_ANOMALY":"293.6090","EPHEMERIS_TYPE":"0","ARG_OF_PERICENTER":"66.5062","OBJECT_NAME":"STARLINK-4109","TLE_LINE1":"1 53268U 22086AC  22359.85475188  .00000011  00000-0  18818-4 0  9991","BSTAR":"0.00001881800000","APOAPSIS":"540.803","TIME_SYSTEM":"UTC","CENTER_NAME":"EARTH","OBJECT_TYPE":"PAYLOAD","FILE":"3722315","LAUNCH_DATE":"2022-07-24","SEMIMAJOR_AXIS":"6917.890","DECAY_DATE":null,"SITE":"AFETR","PERIOD":"95.438","OBJECT_ID":"2022-086AC","ELEMENT_SET_NO":"999","EPOCH":"2022-12-25T20:30:50.562432","TLE_LINE2":"2 53268  53.2182  45.7071 0001515  66.5062 293.6090 15.08836786 24465","NORAD_CAT_ID":"53268","REV_AT_EPOCH":"2446"},{"OBJECT_TYPE":"PAYLOAD","CENTER_NAME":"EARTH","LAUNCH_DATE":"2022-07-24","SEMIMAJOR_AXIS":"6917.874","FILE":"3722315","EPOCH":"2022-12-25T20:16:16.258368","ELEMENT_SET_NO":"999","DECAY_DATE":null,"SITE":"AFETR","PERIOD":"95.437","OBJECT_ID":"2022-086AD","REV_AT_EPOCH":"2459","NORAD_CAT_ID":"53269","TLE_LINE2":"2 53269  53.2177  35.7561 0002404  25.3779 334.7330 15.08842116 24591","EPHEMERIS_TYPE":"0","MEAN_ANOMALY":"334.7330","ARG_OF_PERICENTER":"25.3779","TIME_SYSTEM":"UTC","APOAPSIS":"541.402","BSTAR":"0.00004932200000","TLE_LINE1":"1 53269U 22086AD  22359.84463262  .00000497  00000-0  49322-4 0  9993","OBJECT_NAME":"STARLINK-4057","MEAN_MOTION":"15.08842116","PERIAPSIS":"538.076","INCLINATION":"53.2177","RCS_SIZE":"LARGE","MEAN_MOTION_DOT":"0.00000497","CLASSIFICATION_TYPE":"U","MEAN_MOTION_DDOT":"0.0000000000000","ECCENTRICITY":"0.00024040","MEAN_ELEMENT_THEORY":"SGP4","REF_FRAME":"TEME","RA_OF_ASC_NODE":"35.7561","COUNTRY_CODE":"US","GP_ID":"221454480"},{"CLASSIFICATION_TYPE":"U","MEAN_MOTION_DOT":"0.00000711","PERIAPSIS":"538.501","RCS_SIZE":"LARGE","INCLINATION":"53.2148","MEAN_MOTION":"15.08843753","GP_ID":"221454687","COUNTRY_CODE":"US","RA_OF_ASC_NODE":"35.8017","REF_FRAME":"TEME","MEAN_ELEMENT_THEORY":"SGP4","MEAN_MOTION_DDOT":"0.0000000000000","ECCENTRICITY":"0.00017820","NORAD_CAT_ID":"53271","TLE_LINE2":"2 53271  53.2148  35.8017 0001782  44.5167 315.5968 15.08843753 24593","REV_AT_EPOCH":"2459","ELEMENT_SET_NO":"999","SITE":"AFETR","DECAY_DATE":null,"OBJECT_ID":"2022-086AF","PERIOD":"95.437","EPOCH":"2022-12-25T20:05:39.881760","FILE":"3722315","SEMIMAJOR_AXIS":"6917.869","LAUNCH_DATE":"2022-07-24","CENTER_NAME":"EARTH","OBJECT_TYPE":"PAYLOAD","OBJECT_NAME":"STARLINK-4069","TIME_SYSTEM":"UTC","APOAPSIS":"540.967","BSTAR":"0.00006275900000","TLE_LINE1":"1 53271U 22086AF  22359.83726715  .00000711  00000-0  62759-4 0  9998","ARG_OF_PERICENTER":"44.5167","MEAN_ANOMALY":"315.5968","EPHEMERIS_TYPE":"0"},{"REF_FRAME":"TEME","MEAN_MOTION_DDOT":"0.0000000000000","ECCENTRICITY":"0.00023190","MEAN_ELEMENT_THEORY":"SGP4","GP_ID":"221455306","RA_OF_ASC_NODE":"35.7470","COUNTRY_CODE":"US","MEAN_MOTION":"15.08839509","CLASSIFICATION_TYPE":"U","PERIAPSIS":"538.143","INCLINATION":"53.2125","RCS_SIZE":"LARGE","MEAN_MOTION_DOT":"-0.00000235","EPHEMERIS_TYPE":"0","MEAN_ANOMALY":"319.6389","TIME_SYSTEM":"UTC","APOAPSIS":"541.351","BSTAR":"0.00000335370000","TLE_LINE1":"1 53272U 22086AG  22359.84830805 -.00000235  00000-0  33537-5 0  9991","OBJECT_NAME":"STARLINK-4122","ARG_OF_PERICENTER":"40.4775","SEMIMAJOR_AXIS":"6917.882","LAUNCH_DATE":"2022-07-24","FILE":"3722315","OBJECT_TYPE":"PAYLOAD","CENTER_NAME":"EARTH","REV_AT_EPOCH":"2459","NORAD_CAT_ID":"53272","TLE_LINE2":"2 53272  53.2125  35.7470 0002319  40.4775 319.6389 15.08839509 24594","EPOCH":"2022-12-25T20:21:33.815520","ELEMENT_SET_NO":"999","PERIOD":"95.438","DECAY_DATE":null,"SITE":"AFETR","OBJECT_ID":"2022-086AG"},{"MEAN_ELEMENT_THEORY":"SGP4","ECCENTRICITY":"0.00023830","MEAN_MOTION_DDOT":"0.0000000000000","REF_FRAME":"TEME","COUNTRY_CODE":"US","RA_OF_ASC_NODE":"35.8379","GP_ID":"221453860","MEAN_MOTION":"15.08838923","MEAN_MOTION_DOT":"0.00001484","PERIAPSIS":"538.100","RCS_SIZE":"LARGE","INCLINATION":"53.2167","CLASSIFICATION_TYPE":"U","MEAN_ANOMALY":"327.9444","EPHEMERIS_TYPE":"0","ARG_OF_PERICENTER":"32.1693","OBJECT_NAME":"STARLINK-4051","APOAPSIS":"541.397","TIME_SYSTEM":"UTC","BSTAR":"0.00011131000000","TLE_LINE1":"1 53273U 22086AH  22359.82991177  .00001484  00000-0  11131-3 0  9990","CENTER_NAME":"EARTH","OBJECT_TYPE":"PAYLOAD","FILE":"3722315","SEMIMAJOR_AXIS":"6917.884","LAUNCH_DATE":"2022-07-24","ELEMENT_SET_NO":"999","DECAY_DATE":null,"SITE":"AFETR","PERIOD":"95.438","OBJECT_ID":"2022-086AH","EPOCH":"2022-12-25T19:55:04.376928","NORAD_CAT_ID":"53273","TLE_LINE2":"2 53273  53.2167  35.8379 0002383  32.1693 327.9444 15.08838923 24580","REV_AT_EPOCH":"2458"}];
